{
  "type": "FeatureCollection",
  "features": [
    {
      "type": "Feature",
      "properties": {
        "norad_id": 66899,
        "name": "STARLINK-36064",
        "group": "last-30-days",
        "lat": -10.791477097354026,
        "lon": 18.322173658182628,
        "alt_km": 349.3463397095338,
        "timestamp": "2025-12-22T04:03:37.888822+00:00",
        "meta_object_name": "STARLINK-36064",
        "meta_object_id": "2025-283X",
        "meta_epoch": "2025-12-21T20:00:01.999008",
        "meta_mean_motion": 15.74200086,
        "meta_eccentricity": 0.0001033,
        "meta_inclination": 53.1668,
        "meta_ra_of_asc_node": 28.2028,
        "meta_arg_of_pericenter": 87.881,
        "meta_mean_anomaly": 154.4124,
        "meta_ephemeris_type": 0,
        "meta_classification_type": "U",
        "meta_norad_cat_id": 66899,
        "meta_element_set_no": 999,
        "meta_rev_at_epoch": 383,
        "meta_bstar": -0.00031143,
        "meta_mean_motion_dot": -0.00046011,
        "meta_mean_motion_ddot": 0,
        "tle_line1": "1 66899U 25283X   25355.83335647 -.00046011  00000+0 -31143-3 0  9995",
        "tle_line2": "2 66899  53.1668  28.2028 0001033  87.8810 154.4124 15.74200086  3838"
      },
      "geometry": {
        "type": "Point",
        "coordinates": [
          18.322173658182628,
          -10.791477097354026
        ]
      }
    },
    {
      "type": "Feature",
      "properties": {
        "norad_id": 66900,
        "name": "STARLINK-36074",
        "group": "last-30-days",
        "lat": -9.273188371731841,
        "lon": 19.499032139003276,
        "alt_km": 349.0730075131896,
        "timestamp": "2025-12-22T04:03:37.888834+00:00",
        "meta_object_name": "STARLINK-36074",
        "meta_object_id": "2025-283Y",
        "meta_epoch": "2025-12-21T20:00:01.999008",
        "meta_mean_motion": 15.74208621,
        "meta_eccentricity": 0.0001166,
        "meta_inclination": 53.1575,
        "meta_ra_of_asc_node": 28.1982,
        "meta_arg_of_pericenter": 77.4181,
        "meta_mean_anomaly": 166.7933,
        "meta_ephemeris_type": 0,
        "meta_classification_type": "U",
        "meta_norad_cat_id": 66900,
        "meta_element_set_no": 999,
        "meta_rev_at_epoch": 389,
        "meta_bstar": -0.00055023,
        "meta_mean_motion_dot": -0.00080514,
        "meta_mean_motion_ddot": 0,
        "tle_line1": "1 66900U 25283Y   25355.83335647 -.00080514  00000+0 -55023-3 0  9997",
        "tle_line2": "2 66900  53.1575  28.1982 0001166  77.4181 166.7933 15.74208621  3892"
      },
      "geometry": {
        "type": "Point",
        "coordinates": [
          19.499032139003276,
          -9.273188371731841
        ]
      }
    },
    {
      "type": "Feature",
      "properties": {
        "norad_id": 66901,
        "name": "STARLINK-36043",
        "group": "last-30-days",
        "lat": -7.74352104908499,
        "lon": 20.67495984668954,
        "alt_km": 348.97200159132353,
        "timestamp": "2025-12-22T04:03:37.888844+00:00",
        "meta_object_name": "STARLINK-36043",
        "meta_object_id": "2025-283Z",
        "meta_epoch": "2025-12-21T20:00:01.999008",
        "meta_mean_motion": 15.74198325,
        "meta_eccentricity": 0.0001084,
        "meta_inclination": 53.1574,
        "meta_ra_of_asc_node": 28.194,
        "meta_arg_of_pericenter": 88.5844,
        "meta_mean_anomaly": 157.5466,
        "meta_ephemeris_type": 0,
        "meta_classification_type": "U",
        "meta_norad_cat_id": 66901,
        "meta_element_set_no": 999,
        "meta_rev_at_epoch": 389,
        "meta_bstar": -0.00027834,
        "meta_mean_motion_dot": -0.00041209,
        "meta_mean_motion_ddot": 0,
        "tle_line1": "1 66901U 25283Z   25355.83335647 -.00041209  00000+0 -27834-3 0  9995",
        "tle_line2": "2 66901  53.1574  28.1940 0001084  88.5844 157.5466 15.74198325  3892"
      },
      "geometry": {
        "type": "Point",
        "coordinates": [
          20.67495984668954,
          -7.74352104908499
        ]
      }
    },
    {
      "type": "Feature",
      "properties": {
        "norad_id": 66902,
        "name": "STARLINK-35983",
        "group": "last-30-days",
        "lat": -6.218163090773628,
        "lon": 21.839648770659775,
        "alt_km": 348.8262532697054,
        "timestamp": "2025-12-22T04:03:37.888854+00:00",
        "meta_object_name": "STARLINK-35983",
        "meta_object_id": "2025-283AA",
        "meta_epoch": "2025-12-21T20:00:01.999008",
        "meta_mean_motion": 15.74211138,
        "meta_eccentricity": 0.0001283,
        "meta_inclination": 53.1666,
        "meta_ra_of_asc_node": 28.1909,
        "meta_arg_of_pericenter": 92.53,
        "meta_mean_anomaly": 155.5078,
        "meta_ephemeris_type": 0,
        "meta_classification_type": "U",
        "meta_norad_cat_id": 66902,
        "meta_element_set_no": 999,
        "meta_rev_at_epoch": 389,
        "meta_bstar": -0.00033295,
        "meta_mean_motion_dot": -0.00049154,
        "meta_mean_motion_ddot": 0,
        "tle_line1": "1 66902U 25283AA  25355.83335647 -.00049154  00000+0 -33295-3 0  9991",
        "tle_line2": "2 66902  53.1666  28.1909 0001283  92.5300 155.5078 15.74211138  3898"
      },
      "geometry": {
        "type": "Point",
        "coordinates": [
          21.839648770659775,
          -6.218163090773628
        ]
      }
    },
    {
      "type": "Feature",
      "properties": {
        "norad_id": 66903,
        "name": "STARLINK-36077",
        "group": "last-30-days",
        "lat": -4.6918098095106515,
        "lon": 22.99122111269003,
        "alt_km": 348.81007237453196,
        "timestamp": "2025-12-22T04:03:37.888865+00:00",
        "meta_object_name": "STARLINK-36077",
        "meta_object_id": "2025-283AB",
        "meta_epoch": "2025-12-21T20:00:01.999008",
        "meta_mean_motion": 15.7421595,
        "meta_eccentricity": 0.0001475,
        "meta_inclination": 53.1575,
        "meta_ra_of_asc_node": 28.1864,
        "meta_arg_of_pericenter": 99.3898,
        "meta_mean_anomaly": 150.5706,
        "meta_ephemeris_type": 0,
        "meta_classification_type": "U",
        "meta_norad_cat_id": 66903,
        "meta_element_set_no": 999,
        "meta_rev_at_epoch": 389,
        "meta_bstar": -0.00059867,
        "meta_mean_motion_dot": -0.00087508,
        "meta_mean_motion_ddot": 0,
        "tle_line1": "1 66903U 25283AB  25355.83335647 -.00087508  00000+0 -59867-3 0  9990",
        "tle_line2": "2 66903  53.1575  28.1864 0001475  99.3898 150.5706 15.74215950  3897"
      },
      "geometry": {
        "type": "Point",
        "coordinates": [
          22.99122111269003,
          -4.6918098095106515
        ]
      }
    },
    {
      "type": "Feature",
      "properties": {
        "norad_id": 66904,
        "name": "STARLINK-36059",
        "group": "last-30-days",
        "lat": -3.159854446701382,
        "lon": 24.142523973956976,
        "alt_km": 348.3910891038231,
        "timestamp": "2025-12-22T04:03:37.888876+00:00",
        "meta_object_name": "STARLINK-36059",
        "meta_object_id": "2025-283AC",
        "meta_epoch": "2025-12-21T20:00:01.999008",
        "meta_mean_motion": 15.7421567,
        "meta_eccentricity": 0.000112,
        "meta_inclination": 53.1575,
        "meta_ra_of_asc_node": 28.182,
        "meta_arg_of_pericenter": 86.6282,
        "meta_mean_anomaly": 165.2516,
        "meta_ephemeris_type": 0,
        "meta_classification_type": "U",
        "meta_norad_cat_id": 66904,
        "meta_element_set_no": 999,
        "meta_rev_at_epoch": 389,
        "meta_bstar": -0.00068516,
        "meta_mean_motion_dot": -0.00099907,
        "meta_mean_motion_ddot": 0,
        "tle_line1": "1 66904U 25283AC  25355.83335647 -.00099907  00000+0 -68516-3 0  9998",
        "tle_line2": "2 66904  53.1575  28.1820 0001120  86.6282 165.2516 15.74215670  3894"
      },
      "geometry": {
        "type": "Point",
        "coordinates": [
          24.142523973956976,
          -3.159854446701382
        ]
      }
    },
    {
      "type": "Feature",
      "properties": {
        "norad_id": 66905,
        "name": "STARLINK-36075",
        "group": "last-30-days",
        "lat": -1.625759869576038,
        "lon": 25.29155019220538,
        "alt_km": 348.19372099798693,
        "timestamp": "2025-12-22T04:03:37.888886+00:00",
        "meta_object_name": "STARLINK-36075",
        "meta_object_id": "2025-283AD",
        "meta_epoch": "2025-12-21T20:00:01.999008",
        "meta_mean_motion": 15.74199751,
        "meta_eccentricity": 0.0001439,
        "meta_inclination": 53.1576,
        "meta_ra_of_asc_node": 28.1781,
        "meta_arg_of_pericenter": 91.8765,
        "meta_mean_anomaly": 161.9202,
        "meta_ephemeris_type": 0,
        "meta_classification_type": "U",
        "meta_norad_cat_id": 66905,
        "meta_element_set_no": 999,
        "meta_rev_at_epoch": 389,
        "meta_bstar": -0.00027695,
        "meta_mean_motion_dot": -0.00041012,
        "meta_mean_motion_ddot": 0,
        "tle_line1": "1 66905U 25283AD  25355.83335647 -.00041012  00000+0 -27695-3 0  9996",
        "tle_line2": "2 66905  53.1576  28.1781 0001439  91.8765 161.9202 15.74199751  3895"
      },
      "geometry": {
        "type": "Point",
        "coordinates": [
          25.29155019220538,
          -1.625759869576038
        ]
      }
    }
  ]
}